{"type": "FeatureCollection", "features": [ {"type": "Feature", "properties": {"norad_id": 34875, "name": "COSMOS 2251 DEB", "group": "cosmos-2251-debris", "lat": 70.1369664443048, "lon": -88.34881442572336, "alt_km": 733.0585960404505, "timestamp": "2025-12-20T07:33:51.208368+00:00", "meta": {"OBJECT_NAME": "COSMOS 2251 DEB", "OBJECT_ID": "1993-036ACN", "EPOCH": "2025-12-19T11:28:39.014112", "MEAN_MOTION": 14.48947014, "ECCENTRICITY": 0.0016196, "INCLINATION": 74.0433, "RA_OF_ASC_NODE": 145.5897, "ARG_OF_PERICENTER": 268.763, "MEAN_ANOMALY": 149.3216, "EPHEMERIS_TYPE": 0, "CLASSIFICATION_TYPE": "U", "NORAD_CAT_ID": 34875, "ELEMENT_SET_NO": 999, "REV_AT_EPOCH": 87853, "BSTAR": 0.00033791, "MEAN_MOTION_DOT": 1.255e-05, "MEAN_MOTION_DDOT": 0}, "tle": {"line1": "1 34875U 93036ACN 25353.47822933  .00001255  00000+0  33791-3 0  9992", "line2": "2 34875  74.0433 145.5897 0016196 268.7630 149.3216 14.48947014878533"}}, "geometry": {"type": "Point", "coordinates": [-88.34881442572336, 70.1369664443048]}}, {"type": "Feature", "properties": {"norad_id": 34878, "name": "COSMOS 2251 DEB", "group": "cosmos-2251-debris", "lat": -66.4529833695492, "lon": -103.40118928799706, "alt_km": 1276.7461508362794, "timestamp": "2025-12-20T07:33:51.208379+00:00", "meta": {"OBJECT_NAME": "COSMOS 2251 DEB", "OBJECT_ID": "1993-036ACR", "EPOCH": "2025-12-18T11:43:50.154816", "MEAN_MOTION": 13.44198549, "ECCENTRICITY": 0.04355423, "INCLINATION": 73.9648, "RA_OF_ASC_NODE": 38.2023, "ARG_OF_PERICENTER": 20.5933, "MEAN_ANOMALY": 41.1535, "EPHEMERIS_TYPE": 0, "CLASSIFICATION_TYPE": "U", "NORAD_CAT_ID": 34878, "ELEMENT_SET_NO": 999, "REV_AT_EPOCH": 81350, "BSTAR": 0.00058920549, "MEAN_MOTION_DOT": 5.85e-06, "MEAN_MOTION_DDOT": 0}, "tle": {"line1": "1 34878U 93036ACR 25352.48877494  .00000585  00000+0  58921-3 0  9994", "line2": "2 34878  73.9648  38.2023 0435542  20.5933  41.1535 13.44198549813506"}}, "geometry": {"type": "Point", "coordinates": [-103.40118928799706, -66.4529833695492]}}, {"type": "Feature", "properties": {"norad_id": 34882, "name": "COSMOS 2251 DEB", "group": "cosmos-2251-debris", "lat": 29.7097319957554, "lon": -139.49670785526868, "alt_km": 652.0367937026394, "timestamp": "2025-12-20T07:33:51.208389+00:00", "meta": {"OBJECT_NAME": "COSMOS 2251 DEB", "OBJECT_ID": "1993-036ACV", "EPOCH": "2025-12-18T01:12:56.345760", "MEAN_MOTION": 14.61607051, "ECCENTRICITY": 0.00830708, "INCLINATION": 74.0456, "RA_OF_ASC_NODE": 215.4368, "ARG_OF_PERICENTER": 341.1734, "MEAN_ANOMALY": 18.6364, "EPHEMERIS_TYPE": 0, "CLASSIFICATION_TYPE": "U", "NORAD_CAT_ID": 34882, "ELEMENT_SET_NO": 999, "REV_AT_EPOCH": 88602, "BSTAR": 0.00011703078, "MEAN_MOTION_DOT": 5.78e-06, "MEAN_MOTION_DDOT": 0}, "tle": {"line1": "1 34882U 93036ACV 25352.05065215  .00000578  00000+0  11703-3 0  9991", "line2": "2 34882  74.0456 215.4368 0083070 341.1734  18.6364 14.61607051886026"}}, "geometry": {"type": "Point", "coordinates": [-139.49670785526868, 29.7097319957554]}}, {"type": "Feature", "properties": {"norad_id": 34883, "name": "COSMOS 2251 DEB", "group": "cosmos-2251-debris", "lat": 14.773051200419076, "lon": -135.68329721084177, "alt_km": 694.7576450525203, "timestamp": "2025-12-20T07:33:51.208399+00:00", "meta": {"OBJECT_NAME": "COSMOS 2251 DEB", "OBJECT_ID": "1993-036ACW", "EPOCH": "2025-12-18T13:27:07.209504", "MEAN_MOTION": 14.51672805, "ECCENTRICITY": 0.00951028, "INCLINATION": 74.2022, "RA_OF_ASC_NODE": 51.868, "ARG_OF_PERICENTER": 236.3156, "MEAN_ANOMALY": 122.8912, "EPHEMERIS_TYPE": 0, "CLASSIFICATION_TYPE": "U", "NORAD_CAT_ID": 34883, "ELEMENT_SET_NO": 999, "REV_AT_EPOCH": 86524, "BSTAR": 0.0028915699, "MEAN_MOTION_DOT": 0.00012297, "MEAN_MOTION_DDOT": 0}, "tle": {"line1": "1 34883U 93036ACW 25352.56050011  .00012297  00000+0  28916-2 0  9990", "line2": "2 34883  74.2022  51.8680 0095102 236.3156 122.8912 14.51672805865245"}}, "geometry": {"type": "Point", "coordinates": [-135.68329721084177, 14.773051200419076]}}, {"type": "Feature", "properties": {"norad_id": 34884, "name": "COSMOS 2251 DEB", "group": "cosmos-2251-debris", "lat": 66.05556374904953, "lon": 81.76012510585973, "alt_km": 588.274824969234, "timestamp": "2025-12-20T07:33:51.208409+00:00", "meta": {"OBJECT_NAME": "COSMOS 2251 DEB", "OBJECT_ID": "1993-036ACX", "EPOCH": "2025-12-18T20:20:15.053280", "MEAN_MOTION": 14.90331593, "ECCENTRICITY": 0.00025983, "INCLINATION": 74.0174, "RA_OF_ASC_NODE": 44.5032, "ARG_OF_PERICENTER": 52.1637, "MEAN_ANOMALY": 68.0631, "EPHEMERIS_TYPE": 0, "CLASSIFICATION_TYPE": "U", "NORAD_CAT_ID": 34884, "ELEMENT_SET_NO": 999, "REV_AT_EPOCH": 87896, "BSTAR": 0.0018119739, "MEAN_MOTION_DOT": 0.00017632, "MEAN_MOTION_DDOT": 0}, "tle": {"line1": "1 34884U 93036ACX 25352.84739645  .00017632  00000+0  18120-2 0  9993", "line2": "2 34884  74.0174  44.5032 0002598  52.1637  68.0631 14.90331593878968"}}, "geometry": {"type": "Point", "coordinates": [81.76012510585973, 66.05556374904953]}}, {"type": "Feature", "properties": {"norad_id": 34885, "name": "COSMOS 2251 DEB", "group": "cosmos-2251-debris", "lat": -16.319525360834238, "lon": 163.94829625421195, "alt_km": 724.9415972417537, "timestamp": "2025-12-20T07:33:51.208419+00:00", "meta": {"OBJECT_NAME": "COSMOS 2251 DEB", "OBJECT_ID": "1993-036ACY", "EPOCH": "2025-12-19T20:36:45.224064", "MEAN_MOTION": 14.51536925, "ECCENTRICITY": 0.00150862, "INCLINATION": 74.0297, "RA_OF_ASC_NODE": 169.617, "ARG_OF_PERICENTER": 254.9308, "MEAN_ANOMALY": 224.4752, "EPHEMERIS_TYPE": 0, "CLASSIFICATION_TYPE": "U", "NORAD_CAT_ID": 34885, "ELEMENT_SET_NO": 999, "REV_AT_EPOCH": 87582, "BSTAR": 0.00048267206, "MEAN_MOTION_DOT": 1.906e-05, "MEAN_MOTION_DDOT": 0}, "tle": {"line1": "1 34885U 93036ACY 25353.85885676  .00001906  00000+0  48267-3 0  9995", "line2": "2 34885  74.0297 169.6170 0015086 254.9308 224.4752 14.51536925875827"}}, "geometry": {"type": "Point", "coordinates": [163.94829625421195, -16.319525360834238]}}, {"type": "Feature", "properties": {"norad_id": 34886, "name": "COSMOS 2251 DEB", "group": "cosmos-2251-debris", "lat": -61.53116407405615, "lon": 132.4905533130838, "alt_km": 441.34190430320996, "timestamp": "2025-12-20T07:33:51.208429+00:00", "meta": {"OBJECT_NAME": "COSMOS 2251 DEB", "OBJECT_ID": "1993-036ACZ", "EPOCH": "2025-12-19T05:20:10.106016", "MEAN_MOTION": 15.39455892, "ECCENTRICITY": 0.0031395, "INCLINATION": 73.9504, "RA_OF_ASC_NODE": 166.9286, "ARG_OF_PERICENTER": 349.772, "MEAN_ANOMALY": 10.2844, "EPHEMERIS_TYPE": 0, "CLASSIFICATION_TYPE": "U", "NORAD_CAT_ID": 34886, "ELEMENT_SET_NO": 999, "REV_AT_EPOCH": 63098, "BSTAR": 0.0012728, "MEAN_MOTION_DOT": 0.00051055, "MEAN_MOTION_DDOT": 0}, "tle": {"line1": "1 34886U 93036ACZ 25353.22233919  .00051055  00000+0  12728-2 0  9996", "line2": "2 34886  73.9504 166.9286 0031395 349.7720  10.2844 15.39455892630986"}}, "geometry": {"type": "Point", "coordinates": [132.4905533130838, -61.53116407405615]}}, {"type": "Feature", "properties": {"norad_id": 34907, "name": "COSMOS 2251 DEB", "group": "cosmos-2251-debris", "lat": 63.257587539936786, "lon": 66.60419679084521, "alt_km": 415.2287022074952, "timestamp": "2025-12-20T07:33:51.208440+00:00", "meta": {"OBJECT_NAME": "COSMOS 2251 DEB", "OBJECT_ID": "1993-036ADC", "EPOCH": "2025-12-18T02:32:53.800800", "MEAN_MOTION": 15.47692445, "ECCENTRICITY": 0.00196953, "INCLINATION": 73.9694, "RA_OF_ASC_NODE": 36.6616, "ARG_OF_PERICENTER": 333.5312, "MEAN_ANOMALY": 26.4892, "EPHEMERIS_TYPE": 0, "CLASSIFICATION_TYPE": "U", "NORAD_CAT_ID": 34907, "ELEMENT_SET_NO": 999, "REV_AT_EPOCH": 88056, "BSTAR": 0.0061125728, "MEAN_MOTION_DOT": 0.00332113, "MEAN_MOTION_DDOT": 0}, "tle": {"line1": "1 34907U 93036ADC 25352.10617825  .00332113  00000+0  61126-2 0  9991", "line2": "2 34907  73.9694  36.6616 0019695 333.5312  26.4892 15.47692445880566"}}, "geometry": {"type": "Point", "coordinates": [66.60419679084521, 63.257587539936786]}}, {"type": "Feature", "properties": {"norad_id": 34908, "name": "COSMOS 2251 DEB", "group": "cosmos-2251-debris", "lat": 18.830856310189027, "lon": 15.33002401223305, "alt_km": 738.1188639497823, "timestamp": "2025-12-20T07:33:51.208454+00:00", "meta": {"OBJECT_NAME": "COSMOS 2251 DEB", "OBJECT_ID": "1993-036ADD", "EPOCH": "2025-12-19T18:38:11.181984", "MEAN_MOTION": 14.37417399, "ECCENTRICITY": 0.00403897, "INCLINATION": 74.058, "RA_OF_ASC_NODE": 10.7255, "ARG_OF_PERICENTER": 24.6469, "MEAN_ANOMALY": 88.8338, "EPHEMERIS_TYPE": 0, "CLASSIFICATION_TYPE": "U", "NORAD_CAT_ID": 34908, "ELEMENT_SET_NO": 999, "REV_AT_EPOCH": 87380, "BSTAR": 0.0003685742, "MEAN_MOTION_DOT": 1.086e-05, "MEAN_MOTION_DDOT": 0}, "tle": {"line1": "1 34908U 93036ADD 25353.77651831  .00001086  00000+0  36857-3 0  9997", "line2": "2 34908  74.0580  10.7255 0040389  24.6469  88.8338 14.37417399873807"}}, "geometry": {"type": "Point", "coordinates": [15.33002401223305, 18.830856310189027]}}, {"type": "Feature", "properties": {"norad_id": 34909, "name": "COSMOS 2251 DEB", "group": "cosmos-2251-debris", "lat": 4.284911079636389, "lon": -119.55184503068776, "alt_km": 582.7148634518826, "timestamp": "2025-12-20T07:33:51.208464+00:00", "meta": {"OBJECT_NAME": "COSMOS 2251 DEB", "OBJECT_ID": "1993-036ADE", "EPOCH": "2025-12-19T21:01:21.584928", "MEAN_MOTION": 14.77890246, "ECCENTRICITY": 0.00840467, "INCLINATION": 74.0147, "RA_OF_ASC_NODE": 62.542, "ARG_OF_PERICENTER": 196.7098, "MEAN_ANOMALY": 163.1306, "EPHEMERIS_TYPE": 0, "CLASSIFICATION_TYPE": "U", "NORAD_CAT_ID": 34909, "ELEMENT_SET_NO": 999, "REV_AT_EPOCH": 66957, "BSTAR": 0.00035616814, "MEAN_MOTION_DOT": 2.682e-05, "MEAN_MOTION_DDOT": 0}, "tle": {"line1": "1 34909U 93036ADE 25353.87594427  .00002682  00000+0  35617-3 0  9992", "line2": "2 34909  74.0147  62.5420 0084046 196.7098 163.1306 14.77890246669572"}}, "geometry": {"type": "Point", "coordinates": [-119.55184503068776, 4.284911079636389]}}]}